[{"OBJECT_NAME":"SITRO-AIS 8 (ANOKHIN)","OBJECT_ID":"2023-091AD","EPOCH":"2026-03-09T23:44:40.058592","MEAN_MOTION":15.29359179,"ECCENTRICITY":0.0012509,"INCLINATION":97.5169,"RA_OF_ASC_NODE":133.2823,"ARG_OF_PERICENTER":92.0171,"MEAN_ANOMALY":268.2501,"EPHEMERIS_TYPE":0,"CLASSIFICATION_TYPE":"U","NORAD_CAT_ID":57193,"ELEMENT_SET_NO":999,"REV_AT_EPOCH":14927,"BSTAR":0.00064982524,"MEAN_MOTION_DOT":0.00018494,"MEAN_MOTION_DDOT":0},{"OBJECT_NAME":"STARLINK-35262","OBJECT_ID":"2025-221AA","EPOCH":"2026-03-09T11:19:58.938816","MEAN_MOTION":15.3020959,"ECCENTRICITY":0.00011967,"INCLINATION":53.1584,"RA_OF_ASC_NODE":89.8108,"ARG_OF_PERICENTER":64.2254,"MEAN_ANOMALY":295.887,"EPHEMERIS_TYPE":0,"CLASSIFICATION_TYPE":"U","NORAD_CAT_ID":65847,"ELEMENT_SET_NO":999,"REV_AT_EPOCH":2604,"BSTAR":0.00075207956,"MEAN_MOTION_DOT":0.00021988,"MEAN_MOTION_DDOT":0}]
